GORIZONT 1 [-]          
1 11158U 78118A   22297.16798451 -.00000019  00000+0  00000+0 0  9993
2 11158  11.0767 200.3100 3448703 288.2713  37.9602  1.00308133109563
GORIZONT 2 [-]          
1 11440U 79062A   22297.83891671  .00000012  00000+0  00000+0 0  9990
2 11440   8.9889 300.3506 0003823 275.1004 182.6992  1.00293458124675
GORIZONT 3 [-]          
1 11648U 79105A   22297.84262294 -.00000086  00000+0  00000+0 0  9994
2 11648   9.1500 301.7991 0013967 217.3795 249.7036  1.00348071109136
GORIZONT 4 [-]          
1 11841U 80049A   22297.49096469 -.00000075  00000+0  00000+0 0  9996
2 11841  10.3055 307.6361 0001049 262.5256 283.8246  0.98628839220380
GORIZONT 5 [-]          
1 13092U 82020A   22297.85616007 -.00000186  00000+0  00000+0 0  9996
2 13092  11.3037 312.9401 0034434 214.6698 130.0094  0.98533119108472
GORIZONT 6 [-]          
1 13624U 82103A   22297.75962919  .00000100  00000+0  00000+0 0  9999
2 13624  10.2278 312.9896 0002276 219.1583 326.8862  1.00303090107584
GORIZONT 7 [-]          
1 14160U 83066A   22297.62446853 -.00000005  00000+0  00000+0 0  9999
2 14160  11.9008 322.3834 0009139 314.1031 215.4883  0.98347064141652
GORIZONT 8 [-]          
1 14532U 83118A   22297.86478838 -.00000050  00000+0  00000+0 0  9994
2 14532  12.0770 324.2416 0030276 152.2457 327.9036  0.98268899107423
GORIZONT 9 [-]          
1 14940U 84041A   22297.84548304 -.00000101  00000+0  00000+0 0  9994
2 14940  11.2677 322.2659 0004965 213.2893 237.8591  1.00222308108591
GORIZONT 10 [-]         
1 15144U 84078A   22297.76438491  .00000100  00000+0  00000+0 0  9995
2 15144  11.3648 323.2935 0000856 174.8826   6.0228  1.00234036141229
GORIZONT 11 [-]         
1 15484U 85007A   22297.83139633 -.00000355  00000+0  00000+0 0  9992
2 15484  11.5486 325.2769 0003982 162.6825 313.2170  1.00370054139285
GORIZONT 12 [-]         
1 16769U 86044A   22298.16249241  .00000088  00000+0  00000+0 0  9997
2 16769  12.1756 330.6575 0002098 220.5348 314.5928  1.00213727133928
GORIZONT 13 [-]         
1 17083U 86090A   22297.06293850 -.00000105  00000+0  00000+0 0  9992
2 17083  14.0640 337.8579 0012630 338.7635  35.2480  0.96726187105762
GORIZONT 14 [-]         
1 17969U 87040A   22297.63428550 -.00000088  00000+0  00000+0 0  9991
2 17969  12.9932 329.2363 0032045 176.5156 328.6983  0.97658876106858
GORIZONT 15 [-]         
1 19017U 88028A   22296.79437388 -.00000104  00000+0  00000+0 0  9998
2 19017  14.3592 340.6723 0037355 158.4663 207.9874  0.97828636106479
GORIZONT 16 [-]         
1 19397U 88071A   22297.32104745  .00000108  00000+0  00000+0 0  9998
2 19397  13.2084 339.3533 0013313  66.9801 320.1478  0.99973288124927
GORIZONT 17 [-]         
1 19765U 89004A   22297.61427764  .00000015  00000+0  00000+0 0  9992
2 19765  13.7603 342.7034 0023580 135.9784  32.0758  0.99063856122385
GORIZONT 18 [-]         
1 20107U 89052A   22297.86287448 -.00000204  00000+0  00000+0 0  9998
2 20107  13.8063 343.9591 0033304 318.8459  31.2416  0.99404881121170
GORIZONT 19 [-]         
1 20263U 89081A   22298.16545722 -.00000057  00000+0  00000+0 0  9995
2 20263  13.5351 343.1387 0004424 205.8818 332.7569  1.00354573121140
GORIZONT 20 [-]         
1 20659U 90054A   22297.86005059 -.00000270  00000+0  00000+0 0  9993
2 20659  13.9766 345.9621 0007197 169.0145 282.6103  1.00250584118340
GORIZONT 21 [-]         
1 20923U 90094A   22297.56430024 -.00000285  00000+0  00000+0 0  9998
2 20923  13.9918 346.7347 0005528 199.8007 341.6704  1.00368178117094
GORIZONT 22 [-]         
1 20953U 90102A   22297.55737453 -.00000289  00000+0  00000+0 0  9990
2 20953  13.9512 347.1030 0002180  32.0775 354.4337  1.00258702117020
GORIZONT 23 [-]         
1 21533U 91046A   22297.73024264  .00000023  00000+0  00000+0 0  9997
2 21533  14.7204 351.2585 0003037 299.6202  49.4876  0.98907504 33518
GORIZONT 24 [-]         
1 21759U 91074A   22296.93053609 -.00000074  00000+0  00000+0 0  9991
2 21759  14.8795 353.1737 0018236 224.2075 181.8826  0.98443541111848
GORIZONT 25 [-]         
1 21922U 92017A   22297.11229852 -.00000226  00000+0  00000+0 0  9996
2 21922  14.4207 352.4941 0028785  85.1579 282.7884  0.99847470111649
GORIZONT 26 [-]         
1 22041U 92043A   22295.86068875 -.00000033  00000+0  00000+0 0  9990
2 22041  14.5959 354.5134 0031380 234.6030 135.0525  0.99244417110241
GORIZONT 27 [-]         
1 22245U 92082A   22297.73137625  .00000104  00000+0  00000+0 0  9995
2 22245  14.5109 354.0843 0010984  12.8807 339.8532  1.00149631113779
GORIZONT 28 [-]         
1 22880U 93069A   22297.85863550 -.00000139  00000+0  00000+0 0  9991
2 22880  14.6597 357.9492 0034994 134.9079 303.1197  0.99648071105863
GORIZONT 29 [-]         
1 22907U 93072A   22297.42992440 -.00000198  00000+0  00000+0 0  9994
2 22907  14.5706 357.4091 0008713 346.3522 181.3573  1.00161196105838
GORIZONT 30 [-]         
1 23108U 94030A   22298.50666715 -.00000255  00000+0  00000+0 0  9990
2 23108  14.5848 358.3038 0002607 173.3139 189.3395  1.00265823104154
GORIZONT 31 [-]         
1 23775U 96005A   22297.49859130 -.00000150  00000+0  00000+0 0  9990
2 23775  14.5105   4.5368 0019035 200.9806 172.3744  0.99902002 97758
GORIZONT 32 [-]         
1 23880U 96034A   22297.37335910  .00000095  00000+0  00000+0 0  9998
2 23880  14.4605   5.0525 0007752 358.4980 358.3344  1.00189933 96681
GORIZONT 33 [-]         
1 26372U 00029A   22298.11228958 -.00000189  00000+0  00000+0 0  9997
2 26372  13.1979  16.2620 0003640 110.6731 282.2582  1.00303506 82064
